STARLINK-36633          
1 67632U 26020R   26039.16668981 -.01654627  00000+0 -73108-2 0  9992
2 67632  42.9997 321.6951 0001849 277.5959 150.6476 15.86369919  2647
STARLINK-36637          
1 67633U 26020S   26039.16668981 -.01650910  00000+0 -72429-2 0  9999
2 67633  42.9998 321.6882 0001573 273.7294 157.3260 15.86509368  2645
STARLINK-36617          
1 67634U 26020T   26039.16668981 -.01641607  00000+0 -71415-2 0  9997
2 67634  42.9999 321.6798 0001579 279.9295 154.3651 15.86661966  2642
STARLINK-36627          
1 67635U 26020U   26039.16668981 -.01640569  00000+0 -69462-2 0  9993
2 67635  42.9996 321.6511 0001609 277.0699 168.5536 15.87202477  2642
STARLINK-36624          
1 67636U 26020V   26039.16668981 -.01629609  00000+0 -69400-2 0  9998
2 67636  42.9998 321.6581 0001706 279.7968 163.2277 15.87065177  2646
STARLINK-36610          
1 67637U 26020W   26039.16668981 -.01633607  00000+0 -68411-2 0  9993
2 67637  42.9999 321.6412 0001646 279.8278 169.7839 15.87408761  2644
STARLINK-36599          
1 67638U 26020X   26039.16668981 -.01628320  00000+0 -67503-2 0  9991
2 67638  42.9998 321.6318 0001565 270.3200 182.9940 15.87601661  2644
STARLINK-36595          
1 67639U 26020Y   26039.16668981 -.01626518  00000+0 -66802-2 0  9990
2 67639  42.9997 321.6230 0001655 274.7549 182.0509 15.87782695  2640
STARLINK-36570          
1 67640U 26020Z   26039.16668981 -.01627204  00000+0 -66400-2 0  9999
2 67640  42.9996 321.6162 0001630 274.4987 184.9186 15.87912161  2646
STARLINK-36514          
1 67641U 26020AA  26039.16668981 -.01610002  00000+0 -64346-2 0  9995
2 67641  42.9996 321.5975 0001534 273.4080 193.4283 15.88294298  2642
STARLINK-36556          
1 67642U 26020AB  26039.16668981 -.01618279  00000+0 -64254-2 0  9998
2 67642  42.9995 321.5902 0001550 275.5362 194.0684 15.88438180  2648
STARLINK-36533          
1 67643U 26020AC  26039.16668981 -.01626447  00000+0 -65737-2 0  9992
2 67643  42.9995 321.6069 0001526 274.2046 188.7902 15.88101826  2649
